GALAXY 25 (G-25)        
1 24812C 97026A   23275.00000000  .00000110  00000-0  00000-0 0  2759
2 24812   4.8768  78.8025 0008497  55.7625  54.1460  0.99039300    14
GALAXY 25 (G-25)        
1 24812C 97026A   23278.00000000  .00000002  00000-0  00000-0 0  2785
2 24812   4.8856  78.7912 0008519  58.2581  41.1275  0.99037347    19
INTELSAT 5 (IS-5)   [PM]
1 24916C 97046A   23251.45461806  .00000035  00000-0  00000-0 0  2514
2 24916   8.1881  57.7530 0007924 159.9704  99.3643  1.00269963    15
INTELSAT 5 (IS-5)       
1 24916C 97046A   23275.00000000  .00000035  00000-0  00000-0 0  2752
2 24916   8.2403  57.5587 0003508 166.8181 312.2743  1.00268196    11
INTELSAT 5 (IS-5)       
1 24916C 97046A   23278.00000000  .00000035  00000-0  00000-0 0  2788
2 24916   8.2468  57.5539 0003775 173.0706 308.9942  1.00268756    13
GALAXY 11 (G-11)        
1 26038C 99071A   23275.00000000  .00000219  00000-0  00000-0 0  2753
2 26038   4.2003  82.2348 0006506 136.0508   3.8138  1.00040064    16
GALAXY 11 (G-11)    [PM]
1 26038C 99071A   23275.58333333  .00000219  00000-0  00000-0 0  2754
2 26038   4.2005  82.2619 0008117 129.3438 220.5750  1.00042537    11
GALAXY 11 (G-11)        
1 26038C 99071A   23278.00000000  .00000222  00000-0  00000-0 0  2783
2 26038   4.2125  82.2376 0006690 139.1442   1.1988  1.00041967    14
INTELSAT 9 (IS-9)   [PM]
1 26451C 00043A   23268.81393519 -.00000191  00000-0  00000-0 0  2686
2 26451   8.2063  57.7832 0003451 206.1391 343.4576  1.00275746    11
INTELSAT 9 (IS-9)       
1 26451C 00043A   23275.00000000 -.00000191  00000-0  00000-0 0  2753
2 26451   8.2243  57.7374 0006732 169.9272  92.8257  1.00269513    17
INTELSAT 9 (IS-9)       
1 26451C 00043A   23278.00000000 -.00000191  00000-0  00000-0 0  2789
2 26451   8.2309  57.7349 0006848 169.2847  96.4181  1.00271816    16
INTELSAT 1R (IS-1R)     
1 26608C 00072A   23275.00000000 -.00000046  00000-0  00000-0 0  2758
2 26608   5.6223  75.4394 0002164 197.5718 254.6033  1.00269799    12
INTELSAT 1R (IS-1R)     
1 26608C 00072A   23278.00000000 -.00000046  00000-0  00000-0 0  2784
2 26608   5.6288  75.4501 0002258 197.2419 257.8842  1.00269270    19
INTELSAT 10 (IS-10)     
1 26766C 01019A   23275.00000000  .00000127  00000-0  00000-0 0  2754
2 26766   6.7009  69.1049 0001508 123.4503 355.7245  1.00269429    17
INTELSAT 10 (IS-10)     
1 26766C 01019A   23278.00000000  .00000127  00000-0  00000-0 0  2780
2 26766   6.7088  69.0979 0001571 138.1211 344.0320  1.00270616    19
INTELSAT 10 (IS-10) [PM]
1 26766C 01019A   23279.88711806  .00000127  00000-0  00000-0 0  2791
2 26766   6.7124  69.0884 0001937 112.3202 331.0745  1.00269087    12
INTELSAT 901            
1 26824C 01024A   23275.00000000 -.00000144  00000-0  00000-0 0  2755
2 26824   0.0000 188.1420 0001529  61.4439  93.3846  1.00271024    13
INTELSAT 901            
1 26824C 01024A   23278.00000000 -.00000111  00000-0  00000-0 0  2785
2 26824   0.0072 141.7028 0001621 112.6892  91.5456  1.00271228    19
INTELSAT 902            
1 26900C 01039A   23275.00000000 -.00000192  00000-0  00000-0 0  2759
2 26900   3.5960  83.5950 0004016 152.9001  83.8788  1.00271987    19
INTELSAT 902            
1 26900C 01039A   23278.00000000 -.00000192  00000-0  00000-0 0  2785
2 26900   3.6055  83.5921 0004269 153.3397  86.4047  1.00272689    13
INTELSAT 902        [PM]
1 26900C 01039A   23282.59753472 -.00000192  00000-0  00000-0 0  2827
2 26900   3.6140  83.5795 0003315 154.3615 305.0469  1.00272638    14
INTELSAT 904            
1 27380C 02007A   23275.00000000 -.00000123  00000-0  00000-0 0  2752
2 27380   4.4205  80.7318 0003597 134.0725 126.1768  1.00271642    15
INTELSAT 904            
1 27380C 02007A   23278.00000000 -.00000123  00000-0  00000-0 0  2788
2 27380   4.4297  80.7302 0003798 137.9904 125.2186  1.00270888    18
INTELSAT 904        [PM]
1 27380C 02007A   23281.32474537 -.00000123  00000-0  00000-0 0  2811
2 27380   4.4017 197.2181 0003480 124.2358 142.6873  1.00270187    15
INTELSAT 905            
1 27438C 02027A   23275.00000000 -.00000094  00000-0  00000-0 0  2755
2 27438   4.2445  81.4107 0003183 128.2293 136.3401  1.00271303    14
INTELSAT 905            
1 27438C 02027A   23278.00000000 -.00000094  00000-0  00000-0 0  2781
2 27438   4.2537  81.4072 0003360 132.9071 134.6222  1.00270756    13
INTELSAT 905        [PM]
1 27438C 02027A   23281.82899306 -.00000094  00000-0  00000-0 0  2814
2 27438   4.2674  19.8847 0003152 120.0589 151.2068  1.00271508    10
GALAXY 3C (G-3C)        
1 27445C 02030A   23275.00000000 -.00000062  00000-0  00000-0 0  2752
2 27445   1.1754  89.3426 0003196 152.7020  33.5808  1.00271841    12
GALAXY 3C (G-3C)        
1 27445C 02030A   23278.00000000 -.00000062  00000-0  00000-0 0  2788
2 27445   1.1857  89.4015 0003250 154.0803  35.1050  1.00272191    12
INTELSAT 906            
1 27513C 02041A   23275.00000000  .00000105  00000-0  00000-0 0  2757
2 27513   3.2687  84.9187 0004043 127.1957 222.4999  1.00273272    18
INTELSAT 906        [PM]
1 27513C 02041A   23277.28461806  .00000105  00000-0  00000-0 0  2776
2 27513   3.2765  84.9081 0003532 127.3383 327.0973  1.00270047    16
INTELSAT 906            
1 27513C 02041A   23278.00000000  .00000105  00000-0  00000-0 0  2783
2 27513   3.2784  84.9141 0004342 129.1538 223.5100  1.00271370    18
GALAXY 12 (G-12)    [PM]
1 27715C 03013B   23257.64699074  .00000218  00000-0  00000-0 0  2571
2 27715   4.4079  80.6926 0006310 148.4948 202.9354  0.99254548    19
GALAXY 12 (G-12)        
1 27715C 03013B   23275.00000000 -.00000187  00000-0  00000-0 0  2752
2 27715   4.4488  80.4466 0003945 162.0658 269.1831  0.99216167    11
GALAXY 12 (G-12)        
1 27715C 03013B   23278.00000000 -.00000245  00000-0  00000-0 0  2783
2 27715   4.4631  80.4514 0004297 163.6590 259.1067  0.99215062    11
GALAXY 23 (G-23)        
1 27854C 03034A   23275.00000000  .00000103  00000-0  00000-0 0  2756
2 27854   0.6320  92.3602 0002848 104.1211  53.0873  1.00271010    12
GALAXY 23 (G-23)        
1 27854C 03034A   23278.00000000  .00000103  00000-0  00000-0 0  2782
2 27854   0.6418  92.4407 0002923 110.1969  49.8867  1.00271967    12
GALAXY 23 (G-23)    [PM]
1 27854C 03034A   23280.56591435  .00000103  00000-0  00000-0 0  2806
2 27854   0.6476  92.6087 0002994 114.2644 251.9177  1.00271563    17
GALAXY 13           [PM]
1 27954C 03044A   23271.73049769  .00000138  00000-0  00000-0 0  2713
2 27954   0.0230 231.3086 0000067  39.7320 232.1852  1.00272082    10
GALAXY 13               
1 27954C 03044A   23275.00000000  .00000140  00000-0  00000-0 0  2759
2 27954   0.0099 221.6976 0000260  77.3670 304.4160  1.00270716    11
GALAXY 13               
1 27954C 03044A   23278.00000000  .00000139  00000-0  00000-0 0  2783
2 27954   0.0068 184.1773 0000500 103.0588 319.1994  1.00271985    14
INTELSAT 10-02          
1 28358C 04022A   23275.00000000  .00000077  00000-0  00000-0 0  2754
2 28358   0.0124 259.5896 0001243 336.3741 133.5069  1.00270626    18
INTELSAT 10-02          
1 28358C 04022A   23278.00000000  .00000079  00000-0  00000-0 0  2782
2 28358   0.0107 266.3527 0001461 328.7171 137.3640  1.00270839    13
GALAXY 28 (G-28)        
1 28702C 05022A   23275.00000000 -.00000095  00000-0  00000-0 0  2759
2 28702   0.7359  90.4807 0005690 155.5121  35.4783  1.00272358    12
GALAXY 28 (G-28)    [PM]
1 28702C 05022A   23275.96642361 -.00000095  00000-0  00000-0 0  2756
2 28702   0.7394  90.4810 0005764 155.9496  23.9071  1.00272322    19
GALAXY 28 (G-28)        
1 28702C 05022A   23278.00000000 -.00000096  00000-0  00000-0 0  2786
2 28702   0.7458  90.5765 0005948 156.8632  36.9929  1.00271998    10
GALAXY 14 (G-14)    [PM]
1 28790C 05030A   23274.69097222  .00000245  00000-0  00000-0 0  2746
2 28790   2.4585  86.8266 0001439 128.7047  76.2856  1.00269843    12
GALAXY 14 (G-14)        
1 28790C 05030A   23275.00000000  .00000245  00000-0  00000-0 0  2751
2 28790   2.4600  86.8248 0001840 124.1631 192.3865  1.00269457    16
GALAXY 14 (G-14)        
1 28790C 05030A   23278.00000000  .00000245  00000-0  00000-0 0  2787
2 28790   2.4696  86.8292 0001952 128.6537 190.8331  1.00271078    11
GALAXY 16 (G-16)        
1 29236C 06023A   23275.00000000 -.00000037  00000-0  00000-0 0  2750
2 29236   0.0289 250.3978 0002769 305.6202  75.4566  1.00271160    11
GALAXY 16 (G-16)        
1 29236C 06023A   23278.00000000 -.00000037  00000-0  00000-0 0  2786
2 29236   0.0184 238.0539 0002820 322.9976  73.3800  1.00272516    13
GALAXY 16 (G-16)    [PM]
1 29236C 06023A   23281.98729167 -.00000037  00000-0  00000-0 0  2813
2 29236   0.0355 249.1461 0002928 322.6915  61.9627  1.00269702    12
GALAXY 17 (G-17)        
1 31307C 07016B   23275.00000000 -.00000116  00000-0  00000-0 0  2753
2 31307   0.4504  92.2154 0002998 122.3133  70.9469  1.00272083    14
GALAXY 17 (G-17)        
1 31307C 07016B   23278.00000000 -.00000116  00000-0  00000-0 0  2789
2 31307   0.4604  92.3664 0003163 127.0632  69.0060  1.00271848    17
GALAXY 17 (G-17)    [PM]
1 31307C 07016B   23282.43280093 -.00000116  00000-0  00000-0 0  2828
2 31307   0.4533 253.0318 0002414  97.1278  98.4360  1.00273001    13
INTELSAT 11 (IS-11)     
1 32253C 07044B   23275.00000000 -.00000178  00000-0  00000-0 0  2753
2 32253   0.9895  90.7156 0003758 121.6773 115.0812  1.00272015    13
INTELSAT 11 (IS-11)     
1 32253C 07044B   23278.00000000 -.00000178  00000-0  00000-0 0  2789
2 32253   0.9994  90.7772 0003838 124.2561 115.4004  1.00272569    11
INTELSAT 11 (IS-11) [PM]
1 32253C 07044B   23278.28174769 -.00000178  00000-0  00000-0 0  2783
2 32253   1.0003  90.7836 0003882 124.1618 217.1961  1.00272478    17
HORIZONS-2          [PM]
1 32388C 07063B   23272.77545139 -.00000164  00000-0  00000-0 0  2723
2 32388   0.0365  88.9338 0002253 114.2005  10.5103  1.00272248    11
